CCSDS_OMM_VERS,COMMENT,CREATION_DATE,ORIGINATOR,OBJECT_NAME,OBJECT_ID,CENTER_NAME,REF_FRAME,TIME_SYSTEM,MEAN_ELEMENT_THEORY,EPOCH,MEAN_MOTION,ECCENTRICITY,INCLINATION,RA_OF_ASC_NODE,ARG_OF_PERICENTER,MEAN_ANOMALY,EPHEMERIS_TYPE,CLASSIFICATION_TYPE,NORAD_CAT_ID,ELEMENT_SET_NO,REV_AT_EPOCH,BSTAR,MEAN_MOTION_DOT,MEAN_MOTION_DDOT,SEMIMAJOR_AXIS,PERIOD,APOAPSIS,PERIAPSIS,OBJECT_TYPE,RCS_SIZE,COUNTRY_CODE,LAUNCH_DATE,SITE,DECAY_DATE,FILE,GP_ID,TLE_LINE0,TLE_LINE1,TLE_LINE2
"2.0","GENERATED VIA SPACE-TRACK.ORG API","2020-03-06T03:41:12","18 SPCS","COSMOS 1732","1986-015A","EARTH","TEME","UTC","SGP4","2020-03-04T23:02:31.995456","12.40983953","0.00257020","73.6107","141.1695","112.4371","247.9399","0","U","16593","999","54307","-0.00003773600000","-0.00000022","0.0000000000000","7880.571","116.036","1522.691","1482.182","PAYLOAD","LARGE","CIS","1986-02-11","PKMTR","","2713994","150061912","0 COSMOS 1732","1 16593U 86015A   20064.96009254 -.00000022 +00000-0 -37736-4 0  9997","2 16593 073.6107 141.1695 0025702 112.4371 247.9399 12.40983953543078"
"2.0","GENERATED VIA SPACE-TRACK.ORG API","2020-03-05T01:17:29","18 SPCS","COSMOS 2498","2014-028C","EARTH","TEME","UTC","SGP4","2020-03-04T18:04:08.274720","12.42884605","0.00213210","82.4446","106.6669","37.0192","323.2356","0","U","39763","999","26243","0.00000418760000","0.00000010","0.0000000000000","7872.535","115.859","1511.185","1477.615","PAYLOAD","LARGE","CIS","2014-05-23","PKMTR","","2713584","150025122","0 COSMOS 2498","1 39763U 14028C   20064.75287355 +.00000010 +00000-0 +41876-5 0  9999","2 39763 082.4446 106.6669 0021321 037.0192 323.2356 12.42884605262434"
"2.0","GENERATED VIA SPACE-TRACK.ORG API","2020-03-04T18:25:02","18 SPCS","COSMOS 1732","1986-015A","EARTH","TEME","UTC","SGP4","2020-03-04T11:26:05.274816","12.40983945","0.00257050","73.6108","141.8175","113.1504","247.2251","0","U","16593","999","54301","-0.00006684500000","-0.00000026","0.0000000000000","7880.571","116.036","1522.693","1482.179","PAYLOAD","LARGE","CIS","1986-02-11","PKMTR","","2713454","149971750","0 COSMOS 1732","1 16593U 86015A   20064.47644994 -.00000026 +00000-0 -66845-4 0  9996","2 16593 073.6108 141.8175 0025705 113.1504 247.2251 12.40983945543013"
"2.0","GENERATED VIA SPACE-TRACK.ORG API","2020-03-04T18:25:02","18 SPCS","COSMOS 2498","2014-028C","EARTH","TEME","UTC","SGP4","2020-03-04T10:20:28.469184","12.42884617","0.00213330","82.4448","106.8686","37.6984","322.5571","0","U","39763","999","26239","0.00001885200000","0.00000013","0.0000000000000","7872.535","115.859","1511.195","1477.606","PAYLOAD","LARGE","CIS","2014-05-23","PKMTR","","2713454","149982849","0 COSMOS 2498","1 39763U 14028C   20064.43088506 +.00000013 +00000-0 +18852-4 0  9991","2 39763 082.4448 106.8686 0021333 037.6984 322.5571 12.42884617262394"
"2.0","GENERATED VIA SPACE-TRACK.ORG API","2020-03-04T01:50:03","18 SPCS","COSMOS 2498","2014-028C","EARTH","TEME","UTC","SGP4","2020-03-03T16:57:13.981248","12.42884774","0.00213670","82.4448","107.3223","39.2315","321.0310","0","U","39763","999","26230","0.00012128000000","0.00000027","0.0000000000000","7872.534","115.859","1511.221","1477.578","PAYLOAD","LARGE","CIS","2014-05-23","PKMTR","","2713183","149956664","0 COSMOS 2498","1 39763U 14028C   20063.70641182 +.00000027 +00000-0 +12128-3 0  9999","2 39763 082.4448 107.3223 0021367 039.2315 321.0310 12.42884774262300"
"2.0","GENERATED VIA SPACE-TRACK.ORG API","2020-03-03T22:36:18","18 SPCS","COSMOS 1732","1986-015A","EARTH","TEME","UTC","SGP4","2020-03-03T16:05:20.742144","12.40983955","0.00257160","73.6109","142.8976","114.3308","246.0425","0","U","16593","999","54316","-0.00005671200000","-0.00000025","0.0000000000000","7880.571","116.036","1522.702","1482.171","PAYLOAD","LARGE","CIS","1986-02-11","PKMTR","","2713044","149938306","0 COSMOS 1732","1 16593U 86015A   20063.67037896 -.00000025  00000-0 -56712-4 0  9995","2 16593  73.6109 142.8976 0025716 114.3308 246.0425 12.40983955543168"
"2.0","GENERATED VIA SPACE-TRACK.ORG API","2020-03-03T20:03:21","18 SPCS","COSMOS 1732","1986-015A","EARTH","TEME","UTC","SGP4","2020-03-03T14:09:16.288704","12.40983955","0.00257180","73.6109","143.0056","114.4498","245.9232","0","U","16593","999","54290","-0.00005218500000","-0.00000024","0.0000000000000","7880.571","116.036","1522.704","1482.169","PAYLOAD","LARGE","CIS","1986-02-11","PKMTR","","2713018","149921909","0 COSMOS 1732","1 16593U 86015A   20063.58977186 -.00000024 +00000-0 -52185-4 0  9999","2 16593 073.6109 143.0056 0025718 114.4498 245.9232 12.40983955542908"
"2.0","GENERATED VIA SPACE-TRACK.ORG API","2020-03-03T20:03:21","18 SPCS","COSMOS 2498","2014-028C","EARTH","TEME","UTC","SGP4","2020-03-03T11:09:29.137248","12.42884768","0.00213720","82.4449","107.4735","39.7456","320.5178","0","U","39763","999","26227","0.00012800000000","0.00000028","0.0000000000000","7872.534","115.859","1511.225","1477.574","PAYLOAD","LARGE","CIS","2014-05-23","PKMTR","","2713018","149933008","0 COSMOS 2498","1 39763U 14028C   20063.46492057 +.00000028 +00000-0 +12800-3 0  9995","2 39763 082.4449 107.4735 0021372 039.7456 320.5178 12.42884768262272"
"2.0","GENERATED VIA SPACE-TRACK.ORG API","2020-03-03T01:31:39","18 SPCS","COSMOS 2498","2014-028C","EARTH","TEME","UTC","SGP4","2020-03-02T17:46:14.594880","12.42884832","0.00213980","82.4451","107.9270","41.2831","318.9837","0","U","39763","999","26218","0.00017665000000","0.00000034","0.0000000000000","7872.534","115.859","1511.245","1477.554","PAYLOAD","LARGE","CIS","2014-05-23","PKMTR","","2712829","149908588","0 COSMOS 2498","1 39763U 14028C   20062.74044670 +.00000034 +00000-0 +17665-3 0  9990","2 39763 082.4451 107.9270 0021398 041.2831 318.9837 12.42884832262182"
"2.0","GENERATED VIA SPACE-TRACK.ORG API","2020-03-03T01:31:39","18 SPCS","COSMOS 1732","1986-015A","EARTH","TEME","UTC","SGP4","2020-03-02T16:52:27.300864","12.40983963","0.00257250","73.6110","144.1937","115.7490","244.6213","0","U","16593","999","54279","-0.00000728290000","-0.00000018","0.0000000000000","7880.571","116.036","1522.709","1482.163","PAYLOAD","LARGE","CIS","1986-02-11","PKMTR","","2712829","149897489","0 COSMOS 1732","1 16593U 86015A   20062.70309376 -.00000018 +00000-0 -72829-5 0  9993","2 16593 073.6110 144.1937 0025725 115.7490 244.6213 12.40983963542795"
"2.0","GENERATED VIA SPACE-TRACK.ORG API","2020-03-02T17:14:47","18 SPCS","COSMOS 1732","1986-015A","EARTH","TEME","UTC","SGP4","2020-03-02T13:00:18.397440","12.40983933","0.00257290","73.6110","144.4097","115.9911","244.3787","0","U","16593","999","54277","-0.00001299800000","-0.00000019","0.0000000000000","7880.571","116.036","1522.712","1482.160","PAYLOAD","LARGE","CIS","1986-02-11","PKMTR","","2712687","149855174","0 COSMOS 1732","1 16593U 86015A   20062.54187960 -.00000019 +00000-0 -12998-4 0  9999","2 16593 073.6110 144.4097 0025729 115.9911 244.3787 12.40983933542777"
"2.0","GENERATED VIA SPACE-TRACK.ORG API","2020-03-02T17:14:47","18 SPCS","COSMOS 2498","2014-028C","EARTH","TEME","UTC","SGP4","2020-03-02T11:58:29.767296","12.42885080","0.00214280","82.4452","108.0785","41.7804","318.4907","0","U","39763","999","26215","0.00031611000000","0.00000054","0.0000000000000","7872.533","115.859","1511.267","1477.529","PAYLOAD","LARGE","CIS","2014-05-23","PKMTR","","2712687","149866273","0 COSMOS 2498","1 39763U 14028C   20062.49895564 +.00000054 +00000-0 +31611-3 0  9997","2 39763 082.4452 108.0785 0021428 041.7804 318.4907 12.42885080262151"
"2.0","GENERATED VIA SPACE-TRACK.ORG API","2020-03-01T22:46:17","18 SPCS","COSMOS 2498","2014-028C","EARTH","TEME","UTC","SGP4","2020-03-01T18:35:15.299232","12.42884948","0.00214320","82.4451","108.5322","43.3546","316.9217","0","U","39763","999","26206","0.00028388000000","0.00000049","0.0000000000000","7872.534","115.859","1511.271","1477.526","PAYLOAD","LARGE","CIS","2014-05-23","PKMTR","","2712241","149801202","0 COSMOS 2498","1 39763U 14028C   20061.77448263  .00000049  00000-0  28388-3 0  9998","2 39763  82.4451 108.5322 0021432  43.3546 316.9217 12.42884948262067"
"2.0","GENERATED VIA SPACE-TRACK.ORG API","2020-03-01T22:26:15","18 SPCS","COSMOS 1732","1986-015A","EARTH","TEME","UTC","SGP4","2020-03-01T15:43:29.407872","12.40983952","0.00257450","73.6111","145.5978","117.2865","243.0805","0","U","16593","999","54291","0.00004853300000","-0.00000011","0.0000000000000","7880.571","116.036","1522.725","1482.148","PAYLOAD","LARGE","CIS","1986-02-11","PKMTR","","2712174","149799591","0 COSMOS 1732","1 16593U 86015A   20061.65520148 -.00000011  00000-0  48533-4 0  9994","2 16593  73.6111 145.5978 0025745 117.2865 243.0805 12.40983952542913"
"2.0","GENERATED VIA SPACE-TRACK.ORG API","2020-03-01T17:38:56","18 SPCS","COSMOS 1732","1986-015A","EARTH","TEME","UTC","SGP4","2020-03-01T13:47:24.954432","12.40983940","0.00257470","73.6111","145.7058","117.4031","242.9636","0","U","16593","999","54265","0.00004154100000","-0.00000012","0.0000000000000","7880.571","116.036","1522.726","1482.146","PAYLOAD","LARGE","CIS","1986-02-11","PKMTR","","2712151","149783463","0 COSMOS 1732","1 16593U 86015A   20061.57459438 -.00000012 +00000-0 +41541-4 0  9991","2 16593 073.6111 145.7058 0025747 117.4031 242.9636 12.40983940542651"
"2.0","GENERATED VIA SPACE-TRACK.ORG API","2020-03-01T17:38:56","18 SPCS","COSMOS 2498","2014-028C","EARTH","TEME","UTC","SGP4","2020-03-01T10:51:35.513568","12.42884900","0.00214330","82.4452","108.7339","44.0190","316.2586","0","U","39763","999","26202","0.00026524000000","0.00000047","0.0000000000000","7872.534","115.859","1511.272","1477.526","PAYLOAD","LARGE","CIS","2014-05-23","PKMTR","","2712151","149794562","0 COSMOS 2498","1 39763U 14028C   20061.45249437 +.00000047 +00000-0 +26524-3 0  9993","2 39763 082.4452 108.7339 0021433 044.0190 316.2586 12.42884900262028"
